[{"OBJECT_NAME":"STARLINK-6338","OBJECT_ID":"2023-099AN","EPOCH":"2026-03-01T00:47:36.912768","MEAN_MOTION":15.02536833,"ECCENTRICITY":0.0001181,"INCLINATION":43.0035,"RA_OF_ASC_NODE":283.0452,"ARG_OF_PERICENTER":270.0337,"MEAN_ANOMALY":90.037,"EPHEMERIS_TYPE":0,"CLASSIFICATION_TYPE":"U","NORAD_CAT_ID":57364,"ELEMENT_SET_NO":999,"REV_AT_EPOCH":14496,"BSTAR":5.1897196e-5,"MEAN_MOTION_DOT":4.98e-6,"MEAN_MOTION_DDOT":0},{"OBJECT_NAME":"STARLINK-5007","OBJECT_ID":"2023-099AP","EPOCH":"2026-03-01T00:33:13.560768","MEAN_MOTION":15.02538582,"ECCENTRICITY":0.00012795,"INCLINATION":43.0037,"RA_OF_ASC_NODE":282.9658,"ARG_OF_PERICENTER":265.6658,"MEAN_ANOMALY":94.4038,"EPHEMERIS_TYPE":0,"CLASSIFICATION_TYPE":"U","NORAD_CAT_ID":57365,"ELEMENT_SET_NO":999,"REV_AT_EPOCH":14496,"BSTAR":4.6436037e-5,"MEAN_MOTION_DOT":4.24e-6,"MEAN_MOTION_DDOT":0},{"OBJECT_NAME":"STARLINK-6174","OBJECT_ID":"2023-099AQ","EPOCH":"2026-03-01T00:38:02.027904","MEAN_MOTION":15.02533148,"ECCENTRICITY":9.741e-5,"INCLINATION":43.0032,"RA_OF_ASC_NODE":282.9965,"ARG_OF_PERICENTER":292.7368,"MEAN_ANOMALY":67.3372,"EPHEMERIS_TYPE":0,"CLASSIFICATION_TYPE":"U","NORAD_CAT_ID":57366,"ELEMENT_SET_NO":999,"REV_AT_EPOCH":14496,"BSTAR":-0.00010662274,"MEAN_MOTION_DOT":-1.643e-5,"MEAN_MOTION_DDOT":0},{"OBJECT_NAME":"STARLINK-6215","OBJECT_ID":"2023-099AR","EPOCH":"2026-03-01T00:28:48.174528","MEAN_MOTION":15.02533646,"ECCENTRICITY":0.00012715,"INCLINATION":43.0037,"RA_OF_ASC_NODE":269.9135,"ARG_OF_PERICENTER":264.7139,"MEAN_ANOMALY":95.3558,"EPHEMERIS_TYPE":0,"CLASSIFICATION_TYPE":"U","NORAD_CAT_ID":57367,"ELEMENT_SET_NO":999,"REV_AT_EPOCH":14586,"BSTAR":5.5177143e-5,"MEAN_MOTION_DOT":5.42e-6,"MEAN_MOTION_DDOT":0},{"OBJECT_NAME":"STARLINK-6218","OBJECT_ID":"2023-099AS","EPOCH":"2026-03-01T00:30:02.132928","MEAN_MOTION":15.02536577,"ECCENTRICITY":0.00013844,"INCLINATION":43.0042,"RA_OF_ASC_NODE":282.9481,"ARG_OF_PERICENTER":263.0834,"MEAN_ANOMALY":96.9851,"EPHEMERIS_TYPE":0,"CLASSIFICATION_TYPE":"U","NORAD_CAT_ID":57368,"ELEMENT_SET_NO":999,"REV_AT_EPOCH":14496,"BSTAR":1.0851692e-5,"MEAN_MOTION_DOT":-5.7e-7,"MEAN_MOTION_DDOT":0},{"OBJECT_NAME":"STARLINK-6168","OBJECT_ID":"2023-099AT","EPOCH":"2026-03-01T00:42:49.588704","MEAN_MOTION":15.02537346,"ECCENTRICITY":0.00014013,"INCLINATION":43.0031,"RA_OF_ASC_NODE":283.0213,"ARG_OF_PERICENTER":255.3146,"MEAN_ANOMALY":104.7541,"EPHEMERIS_TYPE":0,"CLASSIFICATION_TYPE":"U","NORAD_CAT_ID":57369,"ELEMENT_SET_NO":999,"REV_AT_EPOCH":14496,"BSTAR":-6.090502e-5,"MEAN_MOTION_DOT":-1.026e-5,"MEAN_MOTION_DDOT":0},{"OBJECT_NAME":"STARLINK-5353","OBJECT_ID":"2023-099AU","EPOCH":"2026-03-01T00:20:26.709792","MEAN_MOTION":15.02533585,"ECCENTRICITY":0.00012456,"INCLINATION":43.004,"RA_OF_ASC_NODE":282.8979,"ARG_OF_PERICENTER":267.0706,"MEAN_ANOMALY":92.9994,"EPHEMERIS_TYPE":0,"CLASSIFICATION_TYPE":"U","NORAD_CAT_ID":57370,"ELEMENT_SET_NO":999,"REV_AT_EPOCH":14496,"BSTAR":6.8079722e-5,"MEAN_MOTION_DOT":7.16e-6,"MEAN_MOTION_DDOT":0},{"OBJECT_NAME":"STARLINK-6032","OBJECT_ID":"2023-099AV","EPOCH":"2026-03-01T00:39:37.363392","MEAN_MOTION":15.02537209,"ECCENTRICITY":0.00012145,"INCLINATION":43.0022,"RA_OF_ASC_NODE":283.0024,"ARG_OF_PERICENTER":284.8633,"MEAN_ANOMALY":75.2075,"EPHEMERIS_TYPE":0,"CLASSIFICATION_TYPE":"U","NORAD_CAT_ID":57371,"ELEMENT_SET_NO":999,"REV_AT_EPOCH":14496,"BSTAR":-6.3389703e-5,"MEAN_MOTION_DOT":-1.06e-5,"MEAN_MOTION_DDOT":0},{"OBJECT_NAME":"STARLINK-5975","OBJECT_ID":"2023-099AW","EPOCH":"2026-03-01T00:09:15.241824","MEAN_MOTION":15.0253793,"ECCENTRICITY":0.00010541,"INCLINATION":43.0037,"RA_OF_ASC_NODE":282.8328,"ARG_OF_PERICENTER":256.0875,"MEAN_ANOMALY":103.985,"EPHEMERIS_TYPE":0,"CLASSIFICATION_TYPE":"U","NORAD_CAT_ID":57372,"ELEMENT_SET_NO":999,"REV_AT_EPOCH":14496,"BSTAR":5.8461974e-5,"MEAN_MOTION_DOT":5.86e-6,"MEAN_MOTION_DDOT":0},{"OBJECT_NAME":"STARLINK-6370","OBJECT_ID":"2023-099AX","EPOCH":"2026-02-28T23:53:26.415168","MEAN_MOTION":15.02537938,"ECCENTRICITY":0.00012304,"INCLINATION":43.003,"RA_OF_ASC_NODE":283.6098,"ARG_OF_PERICENTER":268.3277,"MEAN_ANOMALY":91.7425,"EPHEMERIS_TYPE":0,"CLASSIFICATION_TYPE":"U","NORAD_CAT_ID":57373,"ELEMENT_SET_NO":999,"REV_AT_EPOCH":14495,"BSTAR":9.076938e-6,"MEAN_MOTION_DOT":-8.1e-7,"MEAN_MOTION_DDOT":0},{"OBJECT_NAME":"STARLINK-6369","OBJECT_ID":"2023-099AY","EPOCH":"2026-02-28T15:12:01.176480","MEAN_MOTION":15.02536336,"ECCENTRICITY":0.00012595,"INCLINATION":43.0029,"RA_OF_ASC_NODE":272.1948,"ARG_OF_PERICENTER":268.0923,"MEAN_ANOMALY":91.9776,"EPHEMERIS_TYPE":0,"CLASSIFICATION_TYPE":"U","NORAD_CAT_ID":57374,"ELEMENT_SET_NO":999,"REV_AT_EPOCH":14505,"BSTAR":3.0619831e-5,"MEAN_MOTION_DOT":2.1e-6,"MEAN_MOTION_DDOT":0},{"OBJECT_NAME":"STARLINK-6363","OBJECT_ID":"2023-099AZ","EPOCH":"2026-03-01T00:18:49.497696","MEAN_MOTION":15.02552195,"ECCENTRICITY":0.00012335,"INCLINATION":43.004,"RA_OF_ASC_NODE":282.8885,"ARG_OF_PERICENTER":262.6769,"MEAN_ANOMALY":97.3933,"EPHEMERIS_TYPE":0,"CLASSIFICATION_TYPE":"U","NORAD_CAT_ID":57375,"ELEMENT_SET_NO":999,"REV_AT_EPOCH":14496,"BSTAR":0.00014788435,"MEAN_MOTION_DOT":1.795e-5,"MEAN_MOTION_DDOT":0},{"OBJECT_NAME":"STARLINK-6367","OBJECT_ID":"2023-099BA","EPOCH":"2026-03-01T00:04:27.249888","MEAN_MOTION":15.02548828,"ECCENTRICITY":0.00014024,"INCLINATION":43.0025,"RA_OF_ASC_NODE":282.8189,"ARG_OF_PERICENTER":267.6847,"MEAN_ANOMALY":92.3834,"EPHEMERIS_TYPE":0,"CLASSIFICATION_TYPE":"U","NORAD_CAT_ID":57376,"ELEMENT_SET_NO":999,"REV_AT_EPOCH":14496,"BSTAR":0.0003906955,"MEAN_MOTION_DOT":5.08e-5,"MEAN_MOTION_DDOT":0},{"OBJECT_NAME":"STARLINK-6358","OBJECT_ID":"2023-099BB","EPOCH":"2026-03-01T00:10:51.131136","MEAN_MOTION":15.0253646,"ECCENTRICITY":0.00014841,"INCLINATION":43.0047,"RA_OF_ASC_NODE":282.853,"ARG_OF_PERICENTER":266.0382,"MEAN_ANOMALY":94.0291,"EPHEMERIS_TYPE":0,"CLASSIFICATION_TYPE":"U","NORAD_CAT_ID":57377,"ELEMENT_SET_NO":999,"REV_AT_EPOCH":14496,"BSTAR":0.00021990793,"MEAN_MOTION_DOT":2.768e-5,"MEAN_MOTION_DDOT":0},{"OBJECT_NAME":"STARLINK-6364","OBJECT_ID":"2023-099BC","EPOCH":"2026-02-28T23:04:38.267328","MEAN_MOTION":15.02535043,"ECCENTRICITY":0.0001116,"INCLINATION":43.0026,"RA_OF_ASC_NODE":257.3526,"ARG_OF_PERICENTER":249.7134,"MEAN_ANOMALY":110.3589,"EPHEMERIS_TYPE":0,"CLASSIFICATION_TYPE":"U","NORAD_CAT_ID":57378,"ELEMENT_SET_NO":999,"REV_AT_EPOCH":14599,"BSTAR":1.4711e-5,"MEAN_MOTION_DOT":-5.0e-8,"MEAN_MOTION_DDOT":0},{"OBJECT_NAME":"STARLINK-6361","OBJECT_ID":"2023-099BD","EPOCH":"2026-03-01T00:06:03.643776","MEAN_MOTION":15.02530662,"ECCENTRICITY":0.00012828,"INCLINATION":43.0033,"RA_OF_ASC_NODE":282.8268,"ARG_OF_PERICENTER":275.1771,"MEAN_ANOMALY":84.8925,"EPHEMERIS_TYPE":0,"CLASSIFICATION_TYPE":"U","NORAD_CAT_ID":57379,"ELEMENT_SET_NO":999,"REV_AT_EPOCH":14496,"BSTAR":-5.8906921e-5,"MEAN_MOTION_DOT":-9.99e-6,"MEAN_MOTION_DDOT":0},{"OBJECT_NAME":"STARLINK-6366","OBJECT_ID":"2023-099BE","EPOCH":"2026-02-28T23:03:02.427264","MEAN_MOTION":15.02539395,"ECCENTRICITY":0.0001212,"INCLINATION":43.0022,"RA_OF_ASC_NODE":257.3342,"ARG_OF_PERICENTER":249.6472,"MEAN_ANOMALY":110.424,"EPHEMERIS_TYPE":0,"CLASSIFICATION_TYPE":"U","NORAD_CAT_ID":57380,"ELEMENT_SET_NO":999,"REV_AT_EPOCH":14598,"BSTAR":-3.6396e-5,"MEAN_MOTION_DOT":-6.95e-6,"MEAN_MOTION_DDOT":0},{"OBJECT_NAME":"STARLINK-6371","OBJECT_ID":"2023-099BF","EPOCH":"2026-02-28T23:45:38.371680","MEAN_MOTION":15.02644637,"ECCENTRICITY":0.00010946,"INCLINATION":43.0028,"RA_OF_ASC_NODE":270.5564,"ARG_OF_PERICENTER":285.8053,"MEAN_ANOMALY":74.2669,"EPHEMERIS_TYPE":0,"CLASSIFICATION_TYPE":"U","NORAD_CAT_ID":57381,"ELEMENT_SET_NO":999,"REV_AT_EPOCH":14584,"BSTAR":0.0009316384,"MEAN_MOTION_DOT":0.0001244,"MEAN_MOTION_DDOT":0},{"OBJECT_NAME":"STARLINK-30240","OBJECT_ID":"2023-102A","EPOCH":"2026-03-01T12:00:02.998944","MEAN_MOTION":15.09343841,"ECCENTRICITY":0.0001841,"INCLINATION":43.0001,"RA_OF_ASC_NODE":293.4754,"ARG_OF_PERICENTER":248.4723,"MEAN_ANOMALY":95.9486,"EPHEMERIS_TYPE":0,"CLASSIFICATION_TYPE":"U","NORAD_CAT_ID":57404,"ELEMENT_SET_NO":999,"REV_AT_EPOCH":571,"BSTAR":0.0037125,"MEAN_MOTION_DOT":0.0006057,"MEAN_MOTION_DDOT":0},{"OBJECT_NAME":"STARLINK-30195","OBJECT_ID":"2023-102C","EPOCH":"2026-03-01T12:00:02.998944","MEAN_MOTION":15.04851617,"ECCENTRICITY":0.0001956,"INCLINATION":43.0007,"RA_OF_ASC_NODE":293.4855,"ARG_OF_PERICENTER":303.2684,"MEAN_ANOMALY":38.7056,"EPHEMERIS_TYPE":0,"CLASSIFICATION_TYPE":"U","NORAD_CAT_ID":57406,"ELEMENT_SET_NO":999,"REV_AT_EPOCH":581,"BSTAR":0.0041005,"MEAN_MOTION_DOT":0.00059213,"MEAN_MOTION_DDOT":0},{"OBJECT_NAME":"STARLINK-30207","OBJECT_ID":"2023-102D","EPOCH":"2026-03-01T12:00:02.998944","MEAN_MOTION":15.15028941,"ECCENTRICITY":0.0002267,"INCLINATION":42.9995,"RA_OF_ASC_NODE":279.7284,"ARG_OF_PERICENTER":256.1333,"MEAN_ANOMALY":77.6558,"EPHEMERIS_TYPE":0,"CLASSIFICATION_TYPE":"U","NORAD_CAT_ID":57407,"ELEMENT_SET_NO":999,"REV_AT_EPOCH":572,"BSTAR":0.0054919,"MEAN_MOTION_DOT":0.00105813,"MEAN_MOTION_DDOT":0},{"OBJECT_NAME":"STARLINK-30205","OBJECT_ID":"2023-102E","EPOCH":"2026-03-01T12:00:02.998944","MEAN_MOTION":15.06701863,"ECCENTRICITY":0.0002156,"INCLINATION":43.0005,"RA_OF_ASC_NODE":293.3568,"ARG_OF_PERICENTER":273.4059,"MEAN_ANOMALY":123.6438,"EPHEMERIS_TYPE":0,"CLASSIFICATION_TYPE":"U","NORAD_CAT_ID":57408,"ELEMENT_SET_NO":999,"REV_AT_EPOCH":582,"BSTAR":0.0040458,"MEAN_MOTION_DOT":0.00061433,"MEAN_MOTION_DDOT":0},{"OBJECT_NAME":"STARLINK-30222","OBJECT_ID":"2023-102F","EPOCH":"2026-03-01T12:00:02.998944","MEAN_MOTION":15.08626051,"ECCENTRICITY":0.0001762,"INCLINATION":42.9995,"RA_OF_ASC_NODE":293.1659,"ARG_OF_PERICENTER":303.0758,"MEAN_ANOMALY":170.0982,"EPHEMERIS_TYPE":0,"CLASSIFICATION_TYPE":"U","NORAD_CAT_ID":57409,"ELEMENT_SET_NO":999,"REV_AT_EPOCH":572,"BSTAR":0.0031257,"MEAN_MOTION_DOT":0.00049889,"MEAN_MOTION_DDOT":0}]
